[
  {
    "OBJECT_NAME": "STARLINK-31811",
    "OBJECT_ID": "2024-112P",
    "EPOCH": "2025-06-07T14:18:17.721216",
    "MEAN_MOTION": 15.30189064,
    "ECCENTRICITY": 0.0001081,
    "INCLINATION": 53.161,
    "RA_OF_ASC_NODE": 276.1257,
    "ARG_OF_PERICENTER": 70.0741,
    "MEAN_ANOMALY": 290.0376,
    "EPHEMERIS_TYPE": 0,
    "CLASSIFICATION_TYPE": "U",
    "NORAD_CAT_ID": 60051,
    "ELEMENT_SET_NO": 999,
    "REV_AT_EPOCH": 5647,
    "BSTAR": 2.3698e-05,
    "MEAN_MOTION_DOT": 3.43e-06,
    "MEAN_MOTION_DDOT": 0
  },
  {
    "OBJECT_NAME": "STARLINK-31775",
    "OBJECT_ID": "2024-112Q",
    "EPOCH": "2025-06-07T14:04:37.282368",
    "MEAN_MOTION": 15.30179355,
    "ECCENTRICITY": 0.0001427,
    "INCLINATION": 53.1621,
    "RA_OF_ASC_NODE": 276.0693,
    "ARG_OF_PERICENTER": 93.4076,
    "MEAN_ANOMALY": 266.7088,
    "EPHEMERIS_TYPE": 0,
    "CLASSIFICATION_TYPE": "U",
    "NORAD_CAT_ID": 60052,
    "ELEMENT_SET_NO": 999,
    "REV_AT_EPOCH": 5647,
    "BSTAR": 8.0489e-05,
    "MEAN_MOTION_DOT": 2.024e-05,
    "MEAN_MOTION_DDOT": 0
  },
  {
    "OBJECT_NAME": "STARLINK-31793",
    "OBJECT_ID": "2024-112R",
    "EPOCH": "2025-06-07T14:13:43.993056",
    "MEAN_MOTION": 15.30187791,
    "ECCENTRICITY": 0.000139,
    "INCLINATION": 53.1607,
    "RA_OF_ASC_NODE": 276.1067,
    "ARG_OF_PERICENTER": 99.2803,
    "MEAN_ANOMALY": 260.8355,
    "EPHEMERIS_TYPE": 0,
    "CLASSIFICATION_TYPE": "U",
    "NORAD_CAT_ID": 60053,
    "ELEMENT_SET_NO": 999,
    "REV_AT_EPOCH": 5647,
    "BSTAR": 5.3995e-05,
    "MEAN_MOTION_DOT": 1.24e-05,
    "MEAN_MOTION_DDOT": 0
  },
  {
    "OBJECT_NAME": "STARLINK-31735",
    "OBJECT_ID": "2024-112S",
    "EPOCH": "2025-06-07T15:29:33.716832",
    "MEAN_MOTION": 15.30192283,
    "ECCENTRICITY": 0.0001066,
    "INCLINATION": 53.1613,
    "RA_OF_ASC_NODE": 275.722,
    "ARG_OF_PERICENTER": 85.572,
    "MEAN_ANOMALY": 274.5402,
    "EPHEMERIS_TYPE": 0,
    "CLASSIFICATION_TYPE": "U",
    "NORAD_CAT_ID": 60054,
    "ELEMENT_SET_NO": 999,
    "REV_AT_EPOCH": 5674,
    "BSTAR": 0.00010692,
    "MEAN_MOTION_DOT": 2.808e-05,
    "MEAN_MOTION_DDOT": 0
  },
  {
    "OBJECT_NAME": "STARLINK-31788",
    "OBJECT_ID": "2024-112T",
    "EPOCH": "2025-06-07T12:16:53.481504",
    "MEAN_MOTION": 15.30186494,
    "ECCENTRICITY": 0.0001073,
    "INCLINATION": 53.1615,
    "RA_OF_ASC_NODE": 276.3096,
    "ARG_OF_PERICENTER": 101.3842,
    "MEAN_ANOMALY": 258.7279,
    "EPHEMERIS_TYPE": 0,
    "CLASSIFICATION_TYPE": "U",
    "NORAD_CAT_ID": 60055,
    "ELEMENT_SET_NO": 999,
    "REV_AT_EPOCH": 5646,
    "BSTAR": -8.6766e-06,
    "MEAN_MOTION_DOT": -6.16e-06,
    "MEAN_MOTION_DDOT": 0
  },
  {
    "OBJECT_NAME": "STARLINK-31825",
    "OBJECT_ID": "2024-112U",
    "EPOCH": "2025-06-07T14:00:04.710240",
    "MEAN_MOTION": 15.30169263,
    "ECCENTRICITY": 8.98e-05,
    "INCLINATION": 53.1617,
    "RA_OF_ASC_NODE": 276.0491,
    "ARG_OF_PERICENTER": 118.7664,
    "MEAN_ANOMALY": 241.3427,
    "EPHEMERIS_TYPE": 0,
    "CLASSIFICATION_TYPE": "U",
    "NORAD_CAT_ID": 60056,
    "ELEMENT_SET_NO": 999,
    "REV_AT_EPOCH": 5647,
    "BSTAR": 0.00032108,
    "MEAN_MOTION_DOT": 9.153e-05,
    "MEAN_MOTION_DDOT": 0
  },
  {
    "OBJECT_NAME": "STARLINK-31437",
    "OBJECT_ID": "2024-112V",
    "EPOCH": "2025-06-07T14:09:10.394496",
    "MEAN_MOTION": 15.30198022,
    "ECCENTRICITY": 0.0001184,
    "INCLINATION": 53.1606,
    "RA_OF_ASC_NODE": 276.0853,
    "ARG_OF_PERICENTER": 85.5643,
    "MEAN_ANOMALY": 274.5493,
    "EPHEMERIS_TYPE": 0,
    "CLASSIFICATION_TYPE": "U",
    "NORAD_CAT_ID": 60057,
    "ELEMENT_SET_NO": 999,
    "REV_AT_EPOCH": 5647,
    "BSTAR": -1.1146e-05,
    "MEAN_MOTION_DOT": -6.89e-06,
    "MEAN_MOTION_DDOT": 0
  },
  {
    "OBJECT_NAME": "STARLINK-11181 [DTC]",
    "OBJECT_ID": "2024-113A",
    "EPOCH": "2025-06-07T03:44:13.269696",
    "MEAN_MOTION": 15.69707223,
    "ECCENTRICITY": 0.0001116,
    "INCLINATION": 53.1578,
    "RA_OF_ASC_NODE": 109.6307,
    "ARG_OF_PERICENTER": 100.6926,
    "MEAN_ANOMALY": 259.4218,
    "EPHEMERIS_TYPE": 0,
    "CLASSIFICATION_TYPE": "U",
    "NORAD_CAT_ID": 60059,
    "ELEMENT_SET_NO": 999,
    "REV_AT_EPOCH": 5628,
    "BSTAR": 2.7951e-05,
    "MEAN_MOTION_DOT": 2.798e-05,
    "MEAN_MOTION_DDOT": 0
  },
  {
    "OBJECT_NAME": "STARLINK-11176 [DTC]",
    "OBJECT_ID": "2024-113B",
    "EPOCH": "2025-06-07T03:37:08.192928",
    "MEAN_MOTION": 15.69730183,
    "ECCENTRICITY": 8e-05,
    "INCLINATION": 53.1587,
    "RA_OF_ASC_NODE": 109.599,
    "ARG_OF_PERICENTER": 74.3721,
    "MEAN_ANOMALY": 285.7385,
    "EPHEMERIS_TYPE": 0,
    "CLASSIFICATION_TYPE": "U",
    "NORAD_CAT_ID": 60060,
    "ELEMENT_SET_NO": 999,
    "REV_AT_EPOCH": 5628,
    "BSTAR": -5.3768e-07,
    "MEAN_MOTION_DOT": -6.53e-06,
    "MEAN_MOTION_DDOT": 0
  },
  {
    "OBJECT_NAME": "STARLINK-11167 [DTC]",
    "OBJECT_ID": "2024-113C",
    "EPOCH": "2025-06-07T03:30:05.258880",
    "MEAN_MOTION": 15.69720117,
    "ECCENTRICITY": 0.0001414,
    "INCLINATION": 53.1566,
    "RA_OF_ASC_NODE": 109.5651,
    "ARG_OF_PERICENTER": 100.7672,
    "MEAN_ANOMALY": 259.3505,
    "EPHEMERIS_TYPE": 0,
    "CLASSIFICATION_TYPE": "U",
    "NORAD_CAT_ID": 60061,
    "ELEMENT_SET_NO": 999,
    "REV_AT_EPOCH": 5658,
    "BSTAR": 6.5853e-05,
    "MEAN_MOTION_DOT": 7.399e-05,
    "MEAN_MOTION_DDOT": 0
  },
  {
    "OBJECT_NAME": "STARLINK-11166 [DTC]",
    "OBJECT_ID": "2024-113D",
    "EPOCH": "2025-06-07T20:11:32.794656",
    "MEAN_MOTION": 15.6971474,
    "ECCENTRICITY": 9.53e-05,
    "INCLINATION": 53.1566,
    "RA_OF_ASC_NODE": 106.0795,
    "ARG_OF_PERICENTER": 94.9647,
    "MEAN_ANOMALY": 265.1479,
    "EPHEMERIS_TYPE": 0,
    "CLASSIFICATION_TYPE": "U",
    "NORAD_CAT_ID": 60062,
    "ELEMENT_SET_NO": 999,
    "REV_AT_EPOCH": 5669,
    "BSTAR": 7.7446e-05,
    "MEAN_MOTION_DOT": 8.806e-05,
    "MEAN_MOTION_DDOT": 0
  },
  {
    "OBJECT_NAME": "STARLINK-11165 [DTC]",
    "OBJECT_ID": "2024-113E",
    "EPOCH": "2025-06-07T13:57:44.958240",
    "MEAN_MOTION": 15.69709471,
    "ECCENTRICITY": 0.0001162,
    "INCLINATION": 53.1582,
    "RA_OF_ASC_NODE": 107.304,
    "ARG_OF_PERICENTER": 84.7672,
    "MEAN_ANOMALY": 275.3479,
    "EPHEMERIS_TYPE": 0,
    "CLASSIFICATION_TYPE": "U",
    "NORAD_CAT_ID": 60063,
    "ELEMENT_SET_NO": 999,
    "REV_AT_EPOCH": 5655,
    "BSTAR": 1.3319e-05,
    "MEAN_MOTION_DOT": 1.025e-05,
    "MEAN_MOTION_DDOT": 0
  },
  {
    "OBJECT_NAME": "STARLINK-11169 [DTC]",
    "OBJECT_ID": "2024-113F",
    "EPOCH": "2025-06-07T13:50:41.555904",
    "MEAN_MOTION": 15.69683735,
    "ECCENTRICITY": 0.0001369,
    "INCLINATION": 53.1604,
    "RA_OF_ASC_NODE": 107.2694,
    "ARG_OF_PERICENTER": 108.7153,
    "MEAN_ANOMALY": 251.4014,
    "EPHEMERIS_TYPE": 0,
    "CLASSIFICATION_TYPE": "U",
    "NORAD_CAT_ID": 60064,
    "ELEMENT_SET_NO": 999,
    "REV_AT_EPOCH": 5640,
    "BSTAR": 4.1688e-05,
    "MEAN_MOTION_DOT": 4.459e-05,
    "MEAN_MOTION_DDOT": 0
  },
  {
    "OBJECT_NAME": "STARLINK-11102 [DTC]",
    "OBJECT_ID": "2024-113G",
    "EPOCH": "2025-06-07T06:05:11.927328",
    "MEAN_MOTION": 15.69711725,
    "ECCENTRICITY": 8.7e-05,
    "INCLINATION": 53.1572,
    "RA_OF_ASC_NODE": 108.8041,
    "ARG_OF_PERICENTER": 86.3907,
    "MEAN_ANOMALY": 273.721,
    "EPHEMERIS_TYPE": 0,
    "CLASSIFICATION_TYPE": "U",
    "NORAD_CAT_ID": 60065,
    "ELEMENT_SET_NO": 999,
    "REV_AT_EPOCH": 5630,
    "BSTAR": 1.1955e-06,
    "MEAN_MOTION_DOT": -4.43e-06,
    "MEAN_MOTION_DDOT": 0
  }
]