60051,STARLINK-31811,2024,94.11,-1.0,+,53.16,Active,0,LEO,USA,USA,Unknown,Unknown,Unknown,1 60051U 24112P   25158.59603844  .00000343  00000+0  23698-4 0  9993,2 60051  53.1610 276.1257 0001081  70.0741 290.0376 15.30189064 56475,15.30189064,0.0001081,LEO
60052,STARLINK-31775,2024,94.11,-1.0,+,53.16,Active,0,LEO,USA,USA,Unknown,Unknown,Unknown,1 60052U 24112Q   25158.58654262  .00002024  00000+0  80489-4 0  9992,2 60052  53.1621 276.0693 0001427  93.4076 266.7088 15.30179355 56477,15.30179355,0.0001427,LEO
60053,STARLINK-31793,2024,94.11,-1.0,+,53.16,Active,0,LEO,USA,USA,Unknown,Unknown,Unknown,1 60053U 24112R   25158.59287029  .00001240  00000+0  53995-4 0  9998,2 60053  53.1607 276.1067 0001390  99.2803 260.8355 15.30187791 56474,15.30187791,0.000139,LEO
60054,STARLINK-31735,2024,94.11,-1.0,+,53.16,Active,0,LEO,USA,USA,Unknown,Unknown,Unknown,1 60054U 24112S   25158.64552913  .00002808  00000+0  10692-3 0  9999,2 60054  53.1613 275.7220 0001066  85.5720 274.5402 15.30192283 56741,15.30192283,0.0001066,LEO
60055,STARLINK-31788,2024,94.11,-1.0,+,53.16,Active,0,LEO,USA,USA,Unknown,Unknown,Unknown,1 60055U 24112T   25158.51173011 -.00000616  00000+0 -86766-5 0  9998,2 60055  53.1615 276.3096 0001073 101.3842 258.7279 15.30186494 56464,15.30186494,0.0001073,LEO
60056,STARLINK-31825,2024,94.11,-1.0,+,53.16,Active,0,LEO,USA,USA,Unknown,Unknown,Unknown,1 60056U 24112U   25158.58338785  .00009153  00000+0  32108-3 0  9999,2 60056  53.1617 276.0491 0000898 118.7664 241.3427 15.30169263 56470,15.30169263,8.98e-05,LEO
60057,STARLINK-31437,2024,94.11,-1.0,+,53.16,Active,0,LEO,USA,USA,Unknown,Unknown,Unknown,1 60057U 24112V   25158.58970364 -.00000689  00000+0 -11146-4 0  9992,2 60057  53.1606 276.0853 0001184  85.5643 274.5493 15.30198022 56474,15.30198022,0.0001184,LEO
60059,STARLINK-11181 [DTC],2024,91.74,-1.0,+,53.16,Active,0,LEO,USA,USA,Unknown,Unknown,Unknown,1 60059U 24113A   25158.15570914  .00002798  00000+0  27951-4 0  9997,2 60059  53.1578 109.6307 0001116 100.6926 259.4218 15.69707223 56284,15.69707223,0.0001116,LEO
60060,STARLINK-11176 [DTC],2024,91.74,-1.0,+,53.16,Active,0,LEO,USA,USA,Unknown,Unknown,Unknown,1 60060U 24113B   25158.15078927 -.00000653  00000+0 -53768-6 0  9993,2 60060  53.1587 109.5990 0000800  74.3721 285.7385 15.69730183 56280,15.69730183,8e-05,LEO
60061,STARLINK-11167 [DTC],2024,91.74,-1.0,+,53.16,Active,0,LEO,USA,USA,Unknown,Unknown,Unknown,1 60061U 24113C   25158.14589420  .00007399  00000+0  65853-4 0  9996,2 60061  53.1566 109.5651 0001414 100.7672 259.3505 15.69720117 56583,15.69720117,0.0001414,LEO
60062,STARLINK-11166 [DTC],2024,91.74,-1.0,+,53.16,Active,0,LEO,USA,USA,Unknown,Unknown,Unknown,1 60062U 24113D   25158.84135179  .00008806  00000+0  77446-4 0  9997,2 60062  53.1566 106.0795 0000953  94.9647 265.1479 15.69714740 56690,15.6971474,9.53e-05,LEO
60063,STARLINK-11165 [DTC],2024,91.74,-1.0,+,53.16,Active,0,LEO,USA,USA,Unknown,Unknown,Unknown,1 60063U 24113E   25158.58177035  .00001025  00000+0  13319-4 0  9991,2 60063  53.1582 107.3040 0001162  84.7672 275.3479 15.69709471 56557,15.69709471,0.0001162,LEO
60064,STARLINK-11169 [DTC],2024,91.74,-1.0,+,53.16,Active,0,LEO,USA,USA,Unknown,Unknown,Unknown,1 60064U 24113F   25158.57686986  .00004459  00000+0  41688-4 0  9995,2 60064  53.1604 107.2694 0001369 108.7153 251.4014 15.69683735 56405,15.69683735,0.0001369,LEO
60065,STARLINK-11102 [DTC],2024,91.74,-1.0,+,53.16,Active,0,LEO,USA,USA,Unknown,Unknown,Unknown,1 60065U 24113G   25158.25361027 -.00000443  00000+0  11955-5 0  9992,2 60065  53.1572 108.8041 0000870  86.3907 273.7210 15.69711725 56302,15.69711725,8.7e-05,LEO
